{"type": "FeatureCollection", "features": [ {"type": "Feature", "properties": {"norad_id": 42741, "name": "EUTELSAT 172B", "group": "eutelsat", "lat": -0.0037100263340287157, "lon": -131.62580540756576, "alt_km": 35786.88605801314, "timestamp": "2025-12-07T22:37:42.754418+00:00", "meta": {"OBJECT_NAME": "EUTELSAT 172B", "OBJECT_ID": "2017-029B", "EPOCH": "2025-12-07T05:53:29.465088", "MEAN_MOTION": 1.00267647, "ECCENTRICITY": 3.887e-05, "INCLINATION": 0.0093, "RA_OF_ASC_NODE": 86.2116, "ARG_OF_PERICENTER": 220.8849, "MEAN_ANOMALY": 29.5558, "EPHEMERIS_TYPE": 0, "CLASSIFICATION_TYPE": "U", "NORAD_CAT_ID": 42741, "ELEMENT_SET_NO": 999, "REV_AT_EPOCH": 3180, "BSTAR": 0, "MEAN_MOTION_DOT": -2e-08, "MEAN_MOTION_DDOT": 0}, "tle": {"line1": "1 42741U 17029B   25341.24547992 -.00000002  00000+0  00000+0 0  9995", "line2": "2 42741   0.0093  86.2116 0000388 220.8849  29.5558  1.00267647 31807"}}, "geometry": {"type": "Point", "coordinates": [-131.62580540756576, -0.0037100263340287157]}}, {"type": "Feature", "properties": {"norad_id": 44334, "name": "EUTELSAT 7C", "group": "eutelsat", "lat": -0.03979705074247373, "lon": 63.35249916047402, "alt_km": 35801.01859365097, "timestamp": "2025-12-07T22:37:42.754430+00:00", "meta": {"OBJECT_NAME": "EUTELSAT 7C", "OBJECT_ID": "2019-034B", "EPOCH": "2025-12-06T03:25:30.364320", "MEAN_MOTION": 1.00270039, "ECCENTRICITY": 0.00034504, "INCLINATION": 0.0751, "RA_OF_ASC_NODE": 179.1623, "ARG_OF_PERICENTER": 60.529, "MEAN_ANOMALY": 253.8532, "EPHEMERIS_TYPE": 0, "CLASSIFICATION_TYPE": "U", "NORAD_CAT_ID": 44334, "ELEMENT_SET_NO": 999, "REV_AT_EPOCH": 490, "BSTAR": 0, "MEAN_MOTION_DOT": 5.6e-07, "MEAN_MOTION_DDOT": 0}, "tle": {"line1": "1 44334U 19034B   25340.14271255  .00000056  00000+0  00000+0 0  9995", "line2": "2 44334   0.0751 179.1623 0003450  60.5290 253.8532  1.00270039  4909"}}, "geometry": {"type": "Point", "coordinates": [63.35249916047402, -0.03979705074247373]}}, {"type": "Feature", "properties": {"norad_id": 44624, "name": "EUTELSAT 5 WEST B", "group": "eutelsat", "lat": 0.08589042613243063, "lon": 51.39800131698411, "alt_km": 35800.05173845471, "timestamp": "2025-12-07T22:37:42.754442+00:00", "meta": {"OBJECT_NAME": "EUTELSAT 5 WEST B", "OBJECT_ID": "2019-067A", "EPOCH": "2025-12-07T06:45:46.956672", "MEAN_MOTION": 1.00270619, "ECCENTRICITY": 0.00035801, "INCLINATION": 0.0663, "RA_OF_ASC_NODE": 337.009, "ARG_OF_PERICENTER": 280.0477, "MEAN_ANOMALY": 275.6986, "EPHEMERIS_TYPE": 0, "CLASSIFICATION_TYPE": "U", "NORAD_CAT_ID": 44624, "ELEMENT_SET_NO": 999, "REV_AT_EPOCH": 2251, "BSTAR": 0, "MEAN_MOTION_DOT": -3.8e-07, "MEAN_MOTION_DDOT": 0}, "tle": {"line1": "1 44624U 19067A   25341.28179348 -.00000038  00000+0  00000+0 0  9990", "line2": "2 44624   0.0663 337.0090 0003580 280.0477 275.6986  1.00270619 22512"}}, "geometry": {"type": "Point", "coordinates": [51.39800131698411, 0.08589042613243063]}}, {"type": "Feature", "properties": {"norad_id": 45027, "name": "EUTELSAT KONNECT", "group": "eutelsat", "lat": -0.012104051391322892, "lon": 63.57722912147424, "alt_km": 35792.618330790894, "timestamp": "2025-12-07T22:37:42.754454+00:00", "meta": {"OBJECT_NAME": "EUTELSAT KONNECT", "OBJECT_ID": "2020-005B", "EPOCH": "2025-12-07T06:49:16.621824", "MEAN_MOTION": 1.00268501, "ECCENTRICITY": 0.00017822, "INCLINATION": 0.0704, "RA_OF_ASC_NODE": 98.0332, "ARG_OF_PERICENTER": 187.0322, "MEAN_ANOMALY": 260.754, "EPHEMERIS_TYPE": 0, "CLASSIFICATION_TYPE": "U", "NORAD_CAT_ID": 45027, "ELEMENT_SET_NO": 999, "REV_AT_EPOCH": 2241, "BSTAR": 0, "MEAN_MOTION_DOT": 5.4e-07, "MEAN_MOTION_DDOT": 0}, "tle": {"line1": "1 45027U 20005B   25341.28422016  .00000054  00000+0  00000+0 0  9992", "line2": "2 45027   0.0704  98.0332 0001782 187.0322 260.7540  1.00268501 22413"}}, "geometry": {"type": "Point", "coordinates": [63.57722912147424, -0.012104051391322892]}}, {"type": "Feature", "properties": {"norad_id": 49056, "name": "EUTELSAT QUANTUM", "group": "eutelsat", "lat": 0.03973232157563464, "lon": 104.06774929325836, "alt_km": 35801.380893805166, "timestamp": "2025-12-07T22:37:42.754466+00:00", "meta": {"OBJECT_NAME": "EUTELSAT QUANTUM", "OBJECT_ID": "2021-069B", "EPOCH": "2025-12-07T03:35:19.517280", "MEAN_MOTION": 1.00270861, "ECCENTRICITY": 0.00037105, "INCLINATION": 0.0287, "RA_OF_ASC_NODE": 45.2987, "ARG_OF_PERICENTER": 223.2959, "MEAN_ANOMALY": 269.1142, "EPHEMERIS_TYPE": 0, "CLASSIFICATION_TYPE": "U", "NORAD_CAT_ID": 49056, "ELEMENT_SET_NO": 999, "REV_AT_EPOCH": 1600, "BSTAR": 0, "MEAN_MOTION_DOT": 1.31e-06, "MEAN_MOTION_DDOT": 0}, "tle": {"line1": "1 49056U 21069B   25341.14953145  .00000131  00000+0  00000+0 0  9992", "line2": "2 49056   0.0287  45.2987 0003710 223.2959 269.1142  1.00270861 16008"}}, "geometry": {"type": "Point", "coordinates": [104.06774929325836, 0.03973232157563464]}}, {"type": "Feature", "properties": {"norad_id": 53765, "name": "EUTELSAT KONNECT VHTS", "group": "eutelsat", "lat": -0.01576765368631692, "lon": 59.079925795207075, "alt_km": 35798.711087812124, "timestamp": "2025-12-07T22:37:42.754478+00:00", "meta": {"OBJECT_NAME": "EUTELSAT KONNECT VHTS", "OBJECT_ID": "2022-110A", "EPOCH": "2025-12-07T06:47:54.253248", "MEAN_MOTION": 1.00271597, "ECCENTRICITY": 0.00030323, "INCLINATION": 0.0619, "RA_OF_ASC_NODE": 106.3169, "ARG_OF_PERICENTER": 122.232, "MEAN_ANOMALY": 312.4415, "EPHEMERIS_TYPE": 0, "CLASSIFICATION_TYPE": "U", "NORAD_CAT_ID": 53765, "ELEMENT_SET_NO": 999, "REV_AT_EPOCH": 490, "BSTAR": 0, "MEAN_MOTION_DOT": 2.2e-07, "MEAN_MOTION_DDOT": 0}, "tle": {"line1": "1 53765U 22110A   25341.28326682  .00000022  00000+0  00000+0 0  9996", "line2": "2 53765   0.0619 106.3169 0003032 122.2320 312.4415  1.00271597  4905"}}, "geometry": {"type": "Point", "coordinates": [59.079925795207075, -0.01576765368631692]}}, {"type": "Feature", "properties": {"norad_id": 54048, "name": "EUTELSAT HOTBIRD 13F", "group": "eutelsat", "lat": 0.05079802658219775, "lon": 69.4204599366764, "alt_km": 35783.47239824941, "timestamp": "2025-12-07T22:37:42.754490+00:00", "meta": {"OBJECT_NAME": "EUTELSAT HOTBIRD 13F", "OBJECT_ID": "2022-134A", "EPOCH": "2025-12-06T21:50:38.745024", "MEAN_MOTION": 1.00273163, "ECCENTRICITY": 0.00021775, "INCLINATION": 0.0467, "RA_OF_ASC_NODE": 293.5462, "ARG_OF_PERICENTER": 59.1956, "MEAN_ANOMALY": 63.8704, "EPHEMERIS_TYPE": 0, "CLASSIFICATION_TYPE": "U", "NORAD_CAT_ID": 54048, "ELEMENT_SET_NO": 999, "REV_AT_EPOCH": 1144, "BSTAR": 0, "MEAN_MOTION_DOT": 9.3e-07, "MEAN_MOTION_DDOT": 0}, "tle": {"line1": "1 54048U 22134A   25340.91017066  .00000093  00000+0  00000+0 0  9997", "line2": "2 54048   0.0467 293.5462 0002177  59.1956  63.8704  1.00273163 11444"}}, "geometry": {"type": "Point", "coordinates": [69.4204599366764, 0.05079802658219775]}}, {"type": "Feature", "properties": {"norad_id": 54225, "name": "EUTELSAT HOTBIRD 13G", "group": "eutelsat", "lat": 0.01415777149849515, "lon": 69.3559544464982, "alt_km": 35790.454093076565, "timestamp": "2025-12-07T22:37:42.754502+00:00", "meta": {"OBJECT_NAME": "EUTELSAT HOTBIRD 13G", "OBJECT_ID": "2022-146A", "EPOCH": "2025-12-07T06:50:53.966976", "MEAN_MOTION": 1.00270864, "ECCENTRICITY": 0.00019227, "INCLINATION": 0.0485, "RA_OF_ASC_NODE": 236.5565, "ARG_OF_PERICENTER": 313.7466, "MEAN_ANOMALY": 1.7285, "EPHEMERIS_TYPE": 0, "CLASSIFICATION_TYPE": "U", "NORAD_CAT_ID": 54225, "ELEMENT_SET_NO": 999, "REV_AT_EPOCH": 554, "BSTAR": 0, "MEAN_MOTION_DOT": 9.2e-07, "MEAN_MOTION_DDOT": 0}, "tle": {"line1": "1 54225U 22146A   25341.28534684  .00000092  00000+0  00000+0 0  9997", "line2": "2 54225   0.0485 236.5565 0001922 313.7466   1.7285  1.00270864  5548"}}, "geometry": {"type": "Point", "coordinates": [69.3559544464982, 0.01415777149849515]}}, {"type": "Feature", "properties": {"norad_id": 54259, "name": "EUTELSAT 10B", "group": "eutelsat", "lat": -0.006528240676289539, "lon": 66.33067318313874, "alt_km": 35790.94423029843, "timestamp": "2025-12-07T22:37:42.754514+00:00", "meta": {"OBJECT_NAME": "EUTELSAT 10B", "OBJECT_ID": "2022-157A", "EPOCH": "2025-12-07T06:50:01.549824", "MEAN_MOTION": 1.0026421, "ECCENTRICITY": 0.00016877, "INCLINATION": 0.0622, "RA_OF_ASC_NODE": 101.1456, "ARG_OF_PERICENTER": 78.294, "MEAN_ANOMALY": 9.3623, "EPHEMERIS_TYPE": 0, "CLASSIFICATION_TYPE": "U", "NORAD_CAT_ID": 54259, "ELEMENT_SET_NO": 999, "REV_AT_EPOCH": 1110, "BSTAR": 0, "MEAN_MOTION_DOT": 7.2e-07, "MEAN_MOTION_DDOT": 0}, "tle": {"line1": "1 54259U 22157A   25341.28474016  .00000072  00000+0  00000+0 0  9996", "line2": "2 54259   0.0622 101.1456 0001687  78.2940   9.3623  1.00264210 11109"}}, "geometry": {"type": "Point", "coordinates": [66.33067318313874, -0.006528240676289539]}}, {"type": "Feature", "properties": {"norad_id": 59346, "name": "EUTELSAT 36D", "group": "eutelsat", "lat": 0.041410061982126725, "lon": 92.23963282428187, "alt_km": 35788.581861429295, "timestamp": "2025-12-07T22:37:42.754526+00:00", "meta": {"OBJECT_NAME": "EUTELSAT 36D", "OBJECT_ID": "2024-059A", "EPOCH": "2025-12-07T06:57:23.344992", "MEAN_MOTION": 1.00269308, "ECCENTRICITY": 5.731e-05, "INCLINATION": 0.0196, "RA_OF_ASC_NODE": 353.4406, "ARG_OF_PERICENTER": 317.2042, "MEAN_ANOMALY": 265.8781, "EPHEMERIS_TYPE": 0, "CLASSIFICATION_TYPE": "U", "NORAD_CAT_ID": 59346, "ELEMENT_SET_NO": 999, "REV_AT_EPOCH": 622, "BSTAR": 0, "MEAN_MOTION_DOT": 0, "MEAN_MOTION_DDOT": 0}, "tle": {"line1": "1 59346U 24059A   25341.28985353  .00000000  00000+0  00000+0 0  9993", "line2": "2 59346   0.0196 353.4406 0000573 317.2042 265.8781  1.00269308  6220"}}, "geometry": {"type": "Point", "coordinates": [92.23963282428187, 0.041410061982126725]}}]}